[{"OBJECT_NAME":"STARLINK-30928","OBJECT_ID":"2023-183R","EPOCH":"2026-03-09T22:00:01.999584","MEAN_MOTION":15.26728475,"ECCENTRICITY":0.00015168,"INCLINATION":43.0014,"RA_OF_ASC_NODE":40.0806,"ARG_OF_PERICENTER":255.5144,"MEAN_ANOMALY":45.4622,"EPHEMERIS_TYPE":0,"CLASSIFICATION_TYPE":"U","NORAD_CAT_ID":58452,"ELEMENT_SET_NO":999,"REV_AT_EPOCH":552,"BSTAR":0.0018034848,"MEAN_MOTION_DOT":0.00048418,"MEAN_MOTION_DDOT":0},{"OBJECT_NAME":"UHETSAT","OBJECT_ID":"2023-185E","EPOCH":"2026-03-09T22:39:26.455680","MEAN_MOTION":15.29797662,"ECCENTRICITY":0.00118435,"INCLINATION":97.3584,"RA_OF_ASC_NODE":137.3576,"ARG_OF_PERICENTER":307.7346,"MEAN_ANOMALY":52.2821,"EPHEMERIS_TYPE":0,"CLASSIFICATION_TYPE":"U","NORAD_CAT_ID":58466,"ELEMENT_SET_NO":999,"REV_AT_EPOCH":12611,"BSTAR":0.00030513019,"MEAN_MOTION_DOT":8.749e-5,"MEAN_MOTION_DDOT":0}]
